[Satellite]
VERSION=1.1
NAME=FLOCK 1C-7
NICKNAME=FLOCK 1C-7
TLE1=1 40026U 14033S   17186.01620929  .00000565  00000-0  65279-4 0  9994
TLE2=2 40026  97.9217  99.0032 0010074 244.7242 115.2932 14.89464820165202
